{"type": "FeatureCollection", "features": [ {"type": "Feature", "properties": {"norad_id": 37867, "name": "COSMOS 2476 (744)", "group": "gnss", "lat": 63.89902825413692, "lon": 149.5193215899648, "alt_km": 19178.17271677838, "timestamp": "2025-12-22T04:03:39.411159+00:00", "meta": {"OBJECT_NAME": "COSMOS 2476 (744)", "OBJECT_ID": "2011-064A", "EPOCH": "2025-12-19T06:05:26.552256", "MEAN_MOTION": 2.13103916, "ECCENTRICITY": 0.0024321, "INCLINATION": 65.1662, "RA_OF_ASC_NODE": 78.9509, "ARG_OF_PERICENTER": 234.6548, "MEAN_ANOMALY": 130.4776, "EPHEMERIS_TYPE": 0, "CLASSIFICATION_TYPE": "U", "NORAD_CAT_ID": 37867, "ELEMENT_SET_NO": 999, "REV_AT_EPOCH": 10993, "BSTAR": 0, "MEAN_MOTION_DOT": -3e-07, "MEAN_MOTION_DDOT": 0}, "tle": {"line1": "1 37867U 11064A   25353.25377954 -.00000030  00000+0  00000+0 0  9995", "line2": "2 37867  65.1662  78.9509 0024321 234.6548 130.4776  2.13103916109937"}}, "geometry": {"type": "Point", "coordinates": [149.5193215899648, 63.89902825413692]}}, {"type": "Feature", "properties": {"norad_id": 37868, "name": "COSMOS 2477 (745)", "group": "gnss", "lat": -64.22752926134389, "lon": -27.892869887984226, "alt_km": 19087.67326168608, "timestamp": "2025-12-22T04:03:39.411173+00:00", "meta": {"OBJECT_NAME": "COSMOS 2477 (745)", "OBJECT_ID": "2011-064B", "EPOCH": "2025-12-21T10:11:05.859168", "MEAN_MOTION": 2.13103052, "ECCENTRICITY": 0.00215188, "INCLINATION": 65.1732, "RA_OF_ASC_NODE": 78.9552, "ARG_OF_PERICENTER": 235.2861, "MEAN_ANOMALY": 175.9616, "EPHEMERIS_TYPE": 0, "CLASSIFICATION_TYPE": "U", "NORAD_CAT_ID": 37868, "ELEMENT_SET_NO": 999, "REV_AT_EPOCH": 10997, "BSTAR": 0, "MEAN_MOTION_DOT": -9e-08, "MEAN_MOTION_DDOT": 0}, "tle": {"line1": "1 37868U 11064B   25355.42437337 -.00000009  00000+0  00000+0 0  9995", "line2": "2 37868  65.1732  78.9552 0021518 235.2861 175.9616  2.13103052109976"}}, "geometry": {"type": "Point", "coordinates": [-27.892869887984226, -64.22752926134389]}}, {"type": "Feature", "properties": {"norad_id": 37869, "name": "COSMOS 2475 (743)", "group": "gnss", "lat": -34.340841286382584, "lon": -82.63743402108649, "alt_km": 19075.937654487796, "timestamp": "2025-12-22T04:03:39.411185+00:00", "meta": {"OBJECT_NAME": "COSMOS 2475 (743)", "OBJECT_ID": "2011-064C", "EPOCH": "2025-12-21T11:20:32.914752", "MEAN_MOTION": 2.13101692, "ECCENTRICITY": 0.00265897, "INCLINATION": 65.1803, "RA_OF_ASC_NODE": 78.9738, "ARG_OF_PERICENTER": 248.9867, "MEAN_ANOMALY": 155.1664, "EPHEMERIS_TYPE": 0, "CLASSIFICATION_TYPE": "U", "NORAD_CAT_ID": 37869, "ELEMENT_SET_NO": 999, "REV_AT_EPOCH": 10998, "BSTAR": 0, "MEAN_MOTION_DOT": -9e-08, "MEAN_MOTION_DDOT": 0}, "tle": {"line1": "1 37869U 11064C   25355.47260318 -.00000009  00000+0  00000+0 0  9994", "line2": "2 37869  65.1803  78.9738 0026589 248.9867 155.1664  2.13101692109984"}}, "geometry": {"type": "Point", "coordinates": [-82.63743402108649, -34.340841286382584]}}, {"type": "Feature", "properties": {"norad_id": 37948, "name": "BEIDOU-2 IGSO-5 (C10)", "group": "gnss", "lat": -19.888917960056375, "lon": -105.24097537145941, "alt_km": 35943.05621733959, "timestamp": "2025-12-22T04:03:39.411205+00:00", "meta": {"OBJECT_NAME": "BEIDOU-2 IGSO-5 (C10)", "OBJECT_ID": "2011-073A", "EPOCH": "2025-12-21T18:15:38.509632", "MEAN_MOTION": 1.00289356, "ECCENTRICITY": 0.010984, "INCLINATION": 48.0035, "RA_OF_ASC_NODE": 273.7484, "ARG_OF_PERICENTER": 222.2807, "MEAN_ANOMALY": 321.9503, "EPHEMERIS_TYPE": 0, "CLASSIFICATION_TYPE": "U", "NORAD_CAT_ID": 37948, "ELEMENT_SET_NO": 999, "REV_AT_EPOCH": 5135, "BSTAR": 0, "MEAN_MOTION_DOT": -1.44e-06, "MEAN_MOTION_DDOT": 0}, "tle": {"line1": "1 37948U 11073A   25355.76086238 -.00000144  00000+0  00000+0 0  9991", "line2": "2 37948  48.0035 273.7484 0109840 222.2807 321.9503  1.00289356 51354"}}, "geometry": {"type": "Point", "coordinates": [-105.24097537145941, -19.888917960056375]}}, {"type": "Feature", "properties": {"norad_id": 37951, "name": "LUCH 5A (SDCM/PRN 140)", "group": "gnss", "lat": -7.3846723724558165, "lon": -41.2556861895116, "alt_km": 35774.75361173575, "timestamp": "2025-12-22T04:03:39.411217+00:00", "meta": {"OBJECT_NAME": "LUCH 5A (SDCM/PRN 140)", "OBJECT_ID": "2011-074B", "EPOCH": "2025-12-19T12:20:45.341088", "MEAN_MOTION": 1.0026908, "ECCENTRICITY": 0.0005087, "INCLINATION": 8.2961, "RA_OF_ASC_NODE": 76.4843, "ARG_OF_PERICENTER": 189.4736, "MEAN_ANOMALY": 174.6688, "EPHEMERIS_TYPE": 0, "CLASSIFICATION_TYPE": "U", "NORAD_CAT_ID": 37951, "ELEMENT_SET_NO": 999, "REV_AT_EPOCH": 5125, "BSTAR": 0, "MEAN_MOTION_DOT": -3.2e-07, "MEAN_MOTION_DDOT": 0}, "tle": {"line1": "1 37951U 11074B   25353.51441367 -.00000032  00000+0  00000+0 0  9991", "line2": "2 37951   8.2961  76.4843 0005087 189.4736 174.6688  1.00269080 51252"}}, "geometry": {"type": "Point", "coordinates": [-41.2556861895116, -7.3846723724558165]}}, {"type": "Feature", "properties": {"norad_id": 38091, "name": "BEIDOU-2 G5 (C05)", "group": "gnss", "lat": 2.0114976849484987, "lon": -149.46100992524987, "alt_km": 35787.706420101, "timestamp": "2025-12-22T04:03:39.411230+00:00", "meta": {"OBJECT_NAME": "BEIDOU-2 G5 (C05)", "OBJECT_ID": "2012-008A", "EPOCH": "2025-12-19T16:03:31.750272", "MEAN_MOTION": 1.00268606, "ECCENTRICITY": 0.0012969, "INCLINATION": 3.1258, "RA_OF_ASC_NODE": 70.6861, "ARG_OF_PERICENTER": 231.3522, "MEAN_ANOMALY": 86.1393, "EPHEMERIS_TYPE": 0, "CLASSIFICATION_TYPE": "U", "NORAD_CAT_ID": 38091, "ELEMENT_SET_NO": 999, "REV_AT_EPOCH": 5056, "BSTAR": 0, "MEAN_MOTION_DOT": 7.9e-07, "MEAN_MOTION_DDOT": 0}, "tle": {"line1": "1 38091U 12008A   25353.66911748  .00000079  00000+0  00000+0 0  9996", "line2": "2 38091   3.1258  70.6861 0012969 231.3522  86.1393  1.00268606 50560"}}, "geometry": {"type": "Point", "coordinates": [-149.46100992524987, 2.0114976849484987]}}, {"type": "Feature", "properties": {"norad_id": 38250, "name": "BEIDOU-2 M3 (C11)", "group": "gnss", "lat": 46.91627443176843, "lon": 84.48654087110683, "alt_km": 21584.63000957678, "timestamp": "2025-12-22T04:03:39.411255+00:00", "meta": {"OBJECT_NAME": "BEIDOU-2 M3 (C11)", "OBJECT_ID": "2012-018A", "EPOCH": "2025-12-21T10:55:56.735328", "MEAN_MOTION": 1.86230186, "ECCENTRICITY": 0.0024104, "INCLINATION": 55.9128, "RA_OF_ASC_NODE": 310.8648, "ARG_OF_PERICENTER": 275.302, "MEAN_ANOMALY": 84.4165, "EPHEMERIS_TYPE": 0, "CLASSIFICATION_TYPE": "U", "NORAD_CAT_ID": 38250, "ELEMENT_SET_NO": 999, "REV_AT_EPOCH": 9263, "BSTAR": 0, "MEAN_MOTION_DOT": -6.3e-07, "MEAN_MOTION_DDOT": 0}, "tle": {"line1": "1 38250U 12018A   25355.45551777 -.00000063  00000+0  00000+0 0  9999", "line2": "2 38250  55.9128 310.8648 0024104 275.3020  84.4165  1.86230186 92633"}}, "geometry": {"type": "Point", "coordinates": [84.48654087110683, 46.91627443176843]}}, {"type": "Feature", "properties": {"norad_id": 38251, "name": "BEIDOU-2 M4 (C12)", "group": "gnss", "lat": 13.384923987252412, "lon": 120.74827913150361, "alt_km": 21545.017831568315, "timestamp": "2025-12-22T04:03:39.411269+00:00", "meta": {"OBJECT_NAME": "BEIDOU-2 M4 (C12)", "OBJECT_ID": "2012-018B", "EPOCH": "2025-12-21T09:18:07.121952", "MEAN_MOTION": 1.86229909, "ECCENTRICITY": 0.0015253, "INCLINATION": 55.814, "RA_OF_ASC_NODE": 310.0952, "ARG_OF_PERICENTER": 279.1572, "MEAN_ANOMALY": 80.6641, "EPHEMERIS_TYPE": 0, "CLASSIFICATION_TYPE": "U", "NORAD_CAT_ID": 38251, "ELEMENT_SET_NO": 999, "REV_AT_EPOCH": 9263, "BSTAR": 0, "MEAN_MOTION_DOT": -6.3e-07, "MEAN_MOTION_DDOT": 0}, "tle": {"line1": "1 38251U 12018B   25355.38758243 -.00000063  00000+0  00000+0 0  9999", "line2": "2 38251  55.8140 310.0952 0015253 279.1572  80.6641  1.86229909 92634"}}, "geometry": {"type": "Point", "coordinates": [120.74827913150361, 13.384923987252412]}}, {"type": "Feature", "properties": {"norad_id": 38652, "name": "SES-5 (EGNOS/PRN 136)", "group": "gnss", "lat": -0.020213581932920877, "lon": 156.84789829617054, "alt_km": 35789.07279675657, "timestamp": "2025-12-22T04:03:39.411282+00:00", "meta": {"OBJECT_NAME": "SES-5 (EGNOS/PRN 136)", "OBJECT_ID": "2012-036A", "EPOCH": "2025-12-21T13:13:17.615712", "MEAN_MOTION": 1.00272732, "ECCENTRICITY": 0.0001865, "INCLINATION": 0.0577, "RA_OF_ASC_NODE": 305.1377, "ARG_OF_PERICENTER": 326.3264, "MEAN_ANOMALY": 22.2085, "EPHEMERIS_TYPE": 0, "CLASSIFICATION_TYPE": "U", "NORAD_CAT_ID": 38652, "ELEMENT_SET_NO": 999, "REV_AT_EPOCH": 4267, "BSTAR": 0, "MEAN_MOTION_DOT": 5.7e-07, "MEAN_MOTION_DDOT": 0}, "tle": {"line1": "1 38652U 12036A   25355.55089833  .00000057  00000+0  00000+0 0  9997", "line2": "2 38652   0.0577 305.1377 0001865 326.3264  22.2085  1.00272732 42679"}}, "geometry": {"type": "Point", "coordinates": [156.84789829617054, -0.020213581932920877]}}, {"type": "Feature", "properties": {"norad_id": 38775, "name": "BEIDOU-2 M6 (C14)", "group": "gnss", "lat": -1.771780201905304, "lon": 67.596414233208, "alt_km": 21497.87014681851, "timestamp": "2025-12-22T04:03:39.411294+00:00", "meta": {"OBJECT_NAME": "BEIDOU-2 M6 (C14)", "OBJECT_ID": "2012-050B", "EPOCH": "2025-12-21T02:21:46.465344", "MEAN_MOTION": 1.86230924, "ECCENTRICITY": 0.00113708, "INCLINATION": 56.3853, "RA_OF_ASC_NODE": 68.7901, "ARG_OF_PERICENTER": 343.4825, "MEAN_ANOMALY": 16.5255, "EPHEMERIS_TYPE": 0, "CLASSIFICATION_TYPE": "U", "NORAD_CAT_ID": 38775, "ELEMENT_SET_NO": 999, "REV_AT_EPOCH": 8999, "BSTAR": 0, "MEAN_MOTION_DOT": -3.7e-07, "MEAN_MOTION_DDOT": 0}, "tle": {"line1": "1 38775U 12050B   25355.09845446 -.00000037  00000+0  00000+0 0  9997", "line2": "2 38775  56.3853  68.7901 0011370 343.4825  16.5255  1.86230924 89998"}}, "geometry": {"type": "Point", "coordinates": [67.596414233208, -1.771780201905304]}}]}